IRIDIUM 166             
1 43570U 18061B   23280.90776930  .00000225  00000+0  73390-4 0  9995
2 43570  86.3915 107.7037 0001878  88.8204 271.3207 14.34218570272460
IRIDIUM 158             
1 43571U 18061C   23280.80628225  .00000230  00000+0  75157-4 0  9997
2 43571  86.3916 107.7552 0001989  98.2106 261.9316 14.34219082272413
IRIDIUM 165             
1 43572U 18061D   23280.90142835  .00000221  00000+0  71695-4 0  9990
2 43572  86.3918 107.7431 0002006  99.5701 260.5722 14.34217908272453
IRIDIUM 155             
1 43573U 18061E   23280.93313963  .00000226  00000+0  73674-4 0  9990
2 43573  86.3913 107.6472 0002074  81.2418 278.9013 14.34218529272424
IRIDIUM 154             
1 43574U 18061F   23280.91410749  .00000218  00000+0  70802-4 0  9990
2 43574  86.3918 107.7408 0002356  90.5389 269.6076 14.34218264272470
IRIDIUM 163             
1 43575U 18061G   23280.89506731  .00000238  00000+0  77859-4 0  9996
2 43575  86.3914 107.6947 0002164  90.5794 269.5650 14.34217092272443
IRIDIUM 156             
1 43576U 18061H   23280.93947989  .00000217  00000+0  70345-4 0  9996
2 43576  86.3915 107.6821 0001861  88.5261 271.6148 14.34218864272449
IRIDIUM 164             
1 43577U 18061J   23280.92045429  .00000229  00000+0  74600-4 0  9995
2 43577  86.3916 107.7151 0002010  93.0606 267.0820 14.34218063272480
